NORAD_CAT_ID,OBJECT_NAME,OBJECT_TYPE,EPOCH,MEAN_MOTION,ECCENTRICITY,INCLINATION,RA_OF_ASC_NODE,ARG_OF_PERICENTER,MEAN_ANOMALY,BSTAR,MEAN_MOTION_DOT,MEAN_MOTION_DDOT,TLE_LINE0,TLE_LINE1,TLE_LINE2,SEMIMAJOR_AXIS,PERIOD,APOGEE,PERIGEE,DECAYED
52116.0,STARLINK-3735,PAYLOAD,2023-03-25 12:01:29,15.08807906,8.77e-05,53.2155,248.2785,132.4059,227.7007,-0.0006857,-0.00011174,0.0,0 STARLINK-3735,1 52116U 22029AE  23084.50103601 -.00011174  00000-0 -68570-3 0  9998,2 52116  53.2155 248.2785 0000877 132.4059 227.7007 15.08807906 57719,6917.978,95.44,540.45,539.237,0.0
52116.0,STARLINK-3735,PAYLOAD,2023-03-25 18:23:02,15.08813422,0.0001161,53.2155,247.088,99.8619,260.2504,-0.00052234,-8.585e-05,0.0,0 STARLINK-3735,1 52116U 22029AE  23084.76599953 -.00008585  00000-0 -52234-3 0  9997,2 52116  53.2155 247.0880 0001161  99.8619 260.2504 15.08813422 57755,6917.962,95.439,540.63,539.023,0.0
52116.0,STARLINK-3735,PAYLOAD,2023-03-26 03:55:21,15.08824877,8.83e-05,53.2143,245.3031,104.2347,255.8743,-0.00020329,-3.52e-05,0.0,0 STARLINK-3735,1 52116U 22029AE  23085.16343930 -.00003520  00000-0 -20329-3 0  9998,2 52116  53.2143 245.3031 0000883 104.2347 255.8743 15.08824877 57818,6917.927,95.439,540.402,539.181,0.0
52116.0,STARLINK-3735,PAYLOAD,2023-03-26 18:13:50,15.08847585,8.39e-05,53.2139,242.6273,105.4262,254.6823,0.0016642,0.00026302,0.0,0 STARLINK-3735,1 52116U 22029AE  23085.75960690  .00026302  00000-0  16642-2 0  9994,2 52116  53.2139 242.6273 0000839 105.4262 254.6823 15.08847585 57908,6917.857,95.437,540.303,539.142,0.0
52116.0,STARLINK-3735,PAYLOAD,2023-03-27 03:46:08,15.08854198,9.07e-05,53.2137,240.8444,86.422,273.6876,0.0013691,0.00021577,0.0,0 STARLINK-3735,1 52116U 22029AE  23086.15704653  .00021577  00000-0  13691-2 0  9994,2 52116  53.2137 240.8444 0000907  86.4220 273.6876 15.08854198 57967,6917.837,95.437,540.329,539.075,0.0
52116.0,STARLINK-3735,PAYLOAD,2023-03-27 10:07:41,15.08852756,9.98e-05,53.2143,239.6539,100.4631,259.6474,0.00094835,0.00014842,0.0,0 STARLINK-3735,1 52116U 22029AE  23086.42200501  .00014842  00000-0  94835-3 0  9994,2 52116  53.2143 239.6539 0000998 100.4631 259.6474 15.08852756 58000,6917.841,95.437,540.397,539.016,0.0
52116.0,STARLINK-3735,PAYLOAD,2023-03-27 16:29:13,15.08867598,0.0001207,53.2138,238.4638,95.4938,264.6192,0.0013889,0.00021902,0.0,0 STARLINK-3735,1 52116U 22029AE  23086.68696148  .00021902  00000-0  13889-2 0  9992,2 52116  53.2138 238.4638 0001207  95.4938 264.6192 15.08867598 58045,6917.796,95.436,540.496,538.826,0.0
52116.0,STARLINK-3735,PAYLOAD,2023-03-28 13:09:14,15.0885699,0.0001141,53.2143,234.5982,57.5795,302.5307,0.0014806,0.00023365,0.0,0 STARLINK-3735,1 52116U 22029AE  23087.54808287  .00023365  00000-0  14806-2 0  9992,2 52116  53.2143 234.5982 0001141  57.5795 302.5307 15.08856990 58175,6917.828,95.436,540.483,538.904,0.0
52116.0,STARLINK-3735,PAYLOAD,2023-03-28 16:20:00,15.08857118,9.57e-05,53.2143,234.0034,61.9789,298.13,0.00079133,0.00012334,0.0,0 STARLINK-3735,1 52116U 22029AE  23087.68056073  .00012334  00000-0  79133-3 0  9994,2 52116  53.2143 234.0034 0000957  61.9789 298.1300 15.08857118 58192,6917.828,95.436,540.355,539.031,0.0
52116.0,STARLINK-3735,PAYLOAD,2023-03-29 09:49:15,15.08848746,9.97e-05,53.2139,230.7333,39.645,320.4615,0.001227,0.00019298,0.0,0 STARLINK-3735,1 52116U 22029AE  23088.40920465  .00019298  00000-0  12270-2 0  9994,2 52116  53.2139 230.7333 0000997  39.6450 320.4615 15.08848746 58301,6917.854,95.437,540.408,539.029,0.0
52116.0,STARLINK-3735,PAYLOAD,2023-03-29 13:00:01,15.08842237,9.48e-05,53.214,230.1379,45.9521,314.1549,0.00080781,0.00012593,0.0,0 STARLINK-3735,1 52116U 22029AE  23088.54168534  .00012593  00000-0  80781-3 0  9994,2 52116  53.2140 230.1379 0000948  45.9521 314.1549 15.08842237 58329,6917.874,95.437,540.394,539.083,0.0
52116.0,STARLINK-3735,PAYLOAD,2023-03-29 20:56:56,15.08864015,0.0001041,53.2138,228.6498,77.6151,282.4957,0.0012681,0.00019965,0.0,0 STARLINK-3735,1 52116U 22029AE  23088.87287948  .00019965  00000-0  12681-2 0  9994,2 52116  53.2138 228.6498 0001041  77.6151 282.4957 15.08864015 58379,6917.807,95.436,540.392,538.952,0.0
52116.0,STARLINK-3735,PAYLOAD,2023-03-30 17:36:57,15.08864848,0.0001364,53.2133,224.7815,118.7711,241.3418,0.0010057,0.00015765,0.0,0 STARLINK-3735,1 52116U 22029AE  23089.73399711  .00015765  00000-0  10057-2 0  9991,2 52116  53.2133 224.7815 0001364 118.7711 241.3418 15.08864848 58506,6917.804,95.436,540.613,538.726,0.0
52116.0,STARLINK-3735,PAYLOAD,2023-03-30 20:47:43,15.08892434,0.0001034,53.2136,224.1885,89.1474,270.9637,0.0021799,0.00034626,0.0,0 STARLINK-3735,1 52116U 22029AE  23089.86647256  .00034626  00000-0  21799-2 0  9997,2 52116  53.2136 224.1885 0001034  89.1474 270.9637 15.08892434 58526,6917.72,95.434,540.3,538.87,0.0
52116.0,STARLINK-3735,PAYLOAD,2023-03-31 12:41:35,15.08850412,9.57e-05,53.2135,221.2152,130.2192,229.8884,0.0019724,0.00031251,0.0,0 STARLINK-3735,1 52116U 22029AE  23090.52887929  .00031251  00000-0  19724-2 0  9991,2 52116  53.2135 221.2152 0000957 130.2192 229.8884 15.08850412 58626,6917.849,95.437,540.376,539.052,0.0
52116.0,STARLINK-3735,PAYLOAD,2023-04-01 09:21:36,15.08850256,9.52e-05,53.2141,217.3482,154.2815,205.8224,0.0020205,0.00032024,0.0,0 STARLINK-3735,1 52116U 22029AE  23091.39000453  .00032024  00000-0  20205-2 0  9991,2 52116  53.2141 217.3482 0000952 154.2815 205.8224 15.08850256 58750,6917.849,95.437,540.373,539.055,0.0
52116.0,STARLINK-3735,PAYLOAD,2023-04-01 12:32:22,15.08832924,9.77e-05,53.2145,216.7525,174.0995,186.0008,0.0012752,0.00020061,0.0,0 STARLINK-3735,1 52116U 22029AE  23091.52248711  .00020061  00000-0  12752-2 0  9993,2 52116  53.2145 216.7525 0000977 174.0995 186.0008 15.08832924 58775,6917.902,95.438,540.443,539.091,0.0
52116.0,STARLINK-3735,PAYLOAD,2023-04-01 15:43:09,15.08830327,8.71e-05,53.2142,216.1588,154.2259,205.8777,0.0010957,0.00017188,0.0,0 STARLINK-3735,1 52116U 22029AE  23091.65496945  .00017188  00000-0  10957-2 0  9992,2 52116  53.2142 216.1588 0000871 154.2259 205.8777 15.08830327 58791,6917.91,95.438,540.378,539.172,0.0
52116.0,STARLINK-3735,PAYLOAD,2023-04-02 01:15:27,15.08877956,3.21e-05,53.2146,214.3731,265.5935,94.502,0.0019921,0.00031592,0.0,0 STARLINK-3735,1 52116U 22029AE  23092.05240036  .00031592  00000-0  19921-2 0  9990,2 52116  53.2146 214.3731 0000321 265.5935  94.5020 15.08877956 58852,6917.764,95.435,539.851,539.407,0.0
52116.0,STARLINK-3735,PAYLOAD,2023-04-02 12:23:09,15.08838277,7.09e-05,53.2141,212.2946,108.2204,251.8866,0.00064464,9.986e-05,0.0,0 STARLINK-3735,1 52116U 22029AE  23092.51608778  .00009986  00000-0  64464-3 0  9997,2 52116  53.2141 212.2946 0000709 108.2204 251.8866 15.08838277 58921,6917.886,95.438,540.241,539.26,0.0
52116.0,STARLINK-3735,PAYLOAD,2023-04-02 13:58:33,15.08841938,0.0001026,53.2135,211.9967,88.8907,271.2203,0.0011627,0.00018266,0.0,0 STARLINK-3735,1 52116U 22029AE  23092.58232964  .00018266  00000-0  11627-2 0  9997,2 52116  53.2135 211.9967 0001026  88.8907 271.2203 15.08841938 58939,6917.874,95.437,540.449,539.03,0.0
52116.0,STARLINK-3735,PAYLOAD,2023-04-02 15:33:56,15.08842145,0.0001113,53.214,211.7,87.4263,272.6857,0.0013335,0.00021,0.0,0 STARLINK-3735,1 52116U 22029AE  23092.64857002  .00021000  00000-0  13335-2 0  9998,2 52116  53.2140 211.7000 0001113  87.4263 272.6857 15.08842145 58940,6917.874,95.437,540.509,538.969,0.0
52116.0,STARLINK-3735,PAYLOAD,2023-04-03 01:06:15,15.08838287,0.0001315,53.2143,209.9167,86.8823,273.232,0.00056393,8.698e-05,0.0,0 STARLINK-3735,1 52116U 22029AE  23093.04601200  .00008698  00000-0  56393-3 0  9990,2 52116  53.2143 209.9167 0001315  86.8823 273.2320 15.08838287 59007,6917.886,95.438,540.66,538.841,0.0
52116.0,STARLINK-3735,PAYLOAD,2023-04-03 12:13:57,15.08844842,0.000135,53.2146,207.8346,86.927,273.1877,0.00050971,7.834e-05,0.0,0 STARLINK-3735,1 52116U 22029AE  23093.50969135  .00007834  00000-0  50971-3 0  9992,2 52116  53.2146 207.8346 0001350  86.9270 273.1877 15.08844842 59079,6917.866,95.437,540.665,538.797,0.0
52116.0,STARLINK-3735,PAYLOAD,2023-04-03 17:00:06,15.08876602,0.0001121,53.2149,206.9428,104.6936,255.418,0.0014834,0.00023423,0.0,0 STARLINK-3735,1 52116U 22029AE  23093.70840300  .00023423  00000-0  14834-2 0  9995,2 52116  53.2149 206.9428 0001121 104.6936 255.4180 15.08876602 59109,6917.769,95.435,540.409,538.858,0.0
52116.0,STARLINK-3735,PAYLOAD,2023-04-04 12:04:42,15.08866738,0.0001472,53.2152,203.3742,86.5354,273.5806,0.00049557,7.614e-05,0.0,0 STARLINK-3735,1 52116U 22029AE  23094.50327516  .00007614  00000-0  49557-3 0  9998,2 52116  53.2152 203.3742 0001472  86.5354 273.5806 15.08866738 59222,6917.799,95.436,540.682,538.645,0.0
52116.0,STARLINK-3735,PAYLOAD,2023-04-05 11:55:30,15.08832187,0.0001333,53.2158,198.9101,106.1745,253.9394,-0.00015598,-2.769e-05,0.0,0 STARLINK-3735,1 52116U 22029AE  23095.49688260 -.00002769  00000-0 -15598-3 0  9999,2 52116  53.2158 198.9101 0001333 106.1745 253.9394 15.08832187 59376,6917.904,95.438,540.691,538.847,0.0
52116.0,STARLINK-3735,PAYLOAD,2023-04-05 13:30:53,15.08831432,0.0001114,53.2147,198.6119,106.0367,254.0748,-0.00025107,-4.28e-05,0.0,0 STARLINK-3735,1 52116U 22029AE  23095.56312291 -.00004280  00000-0 -25107-3 0  9992,2 52116  53.2147 198.6119 0001114 106.0367 254.0748 15.08831432 59384,6917.907,95.438,540.542,539.001,0.0
52116.0,STARLINK-3735,PAYLOAD,2023-04-06 11:46:18,15.08838638,0.000128,53.2153,194.4536,82.8451,277.2687,0.00017484,2.496e-05,0.0,0 STARLINK-3735,1 52116U 22029AE  23096.49049002  .00002496  00000-0  17484-3 0  9996,2 52116  53.2153 194.4536 0001280  82.8451 277.2687 15.08838638 59527,6917.885,95.438,540.635,538.864,0.0
52116.0,STARLINK-3735,PAYLOAD,2023-04-07 05:15:33,15.08840679,0.00014,53.216,191.1845,92.2028,267.9124,0.00044361,6.779e-05,0.0,0 STARLINK-3735,1 52116U 22029AE  23097.21913568  .00006779  00000-0  44361-3 0  9996,2 52116  53.2160 191.1845 0001400  92.2028 267.9124 15.08840679 59633,6917.878,95.438,540.712,538.775,0.0
